QIANFAN-69              
1 62799U 25016Q   26073.90711040  .00000054  00000+0  64372-4 0  9991
2 62799  88.9658  93.4039 0017939  80.6415 279.6764 13.51005890 59726
QIANFAN-70              
1 62800U 25016R   26073.92358234  .00000045  00000+0  50565-4 0  9997
2 62800  88.9679  93.5602 0017418  72.1545 288.1505 13.50997466 59682
QIANFAN-71              
1 62801U 25016S   26073.91941926  .00000046  00000+0  52390-4 0  9992
2 62801  88.9673  93.5345 0017874  83.7362 276.5824 13.50996985 59682
QIANFAN-72              
1 62802U 25016T   26073.93589323  .00000045  00000+0  51131-4 0  9995
2 62802  88.9663  93.5371 0021177  89.9488 270.4089 13.50996576 59670
QIANFAN-73              
1 63159U 25046A   26073.88866805  .00000130  00000+0  18267-3 0  9998
2 63159  88.9743 310.5038 0013589 212.6560 147.3752 13.51000851 59853
QIANFAN-74              
1 63160U 25046B   26073.94632058  .00000160  00000+0  22983-3 0  9991
2 63160  88.9744 310.3867 0001978  79.4196 280.7178 13.51001226 59926
QIANFAN-75              
1 63161U 25046C   26073.85967060  .00000143  00000+0  20290-3 0  9996
2 63161  88.9746 310.6307 0014694 216.6328 143.3820 13.50952279 59786
QIANFAN-76              
1 63162U 25046D   26073.92977381  .00000177  00000+0  25571-3 0  9996
2 63162  88.9745 310.6032 0012212 216.1783 143.8543 13.51002429 59809
QIANFAN-77              
1 63163U 25046E   26073.92589975  .00000344  00000+0  24066-3 0  9999
2 63163  88.9741 307.8525 0015577 145.9475 214.2704 13.96180828 61315
QIANFAN-78              
1 63164U 25046F   26073.89689633  .00000172  00000+0  24809-3 0  9992
2 63164  88.9744 310.4698 0013506 219.4822 140.5346 13.51001738 59877
QIANFAN-79              
1 63165U 25046G   26073.92577009  .00000150  00000+0  21423-3 0  9995
2 63165  88.9748 310.5780 0013404 217.5258 142.4959 13.51011631 59823
QIANFAN-80              
1 63166U 25046H   26073.94213906  .00000142  00000+0  20179-3 0  9999
2 63166  88.9745 310.2806 0012151 221.7596 138.2629 13.51000900 59988
QIANFAN-81              
1 63167U 25046J   26073.92039530  .00000092  00000+0  12435-3 0  9997
2 63167  88.9745 310.3507 0013426 210.2129 149.8249 13.50985893 59932
QIANFAN-82              
1 63168U 25046K   26073.88045272  .00000134  00000+0  18830-3 0  9995
2 63168  88.9745 310.3988 0011356 217.3473 142.6890 13.51002302 59913
QIANFAN-83              
1 63169U 25046L   26073.89816547  .00000183  00000+0  22123-3 0  9992
2 63169  88.9745 309.9922 0013177 195.7981 164.2767 13.62025340 60141
QIANFAN-84              
1 63170U 25046M   26073.90941601  .00000196  00000+0  28528-3 0  9995
2 63170  88.9745 310.5285 0014661 214.7400 145.2795 13.50833567 59840
QIANFAN-85              
1 63171U 25046N   26073.90510302  .00000141  00000+0  19905-3 0  9995
2 63171  88.9744 310.4001 0011791 216.1279 143.9077 13.51004925 59911
