[{"OBJECT_NAME":"QIANFAN-69","OBJECT_ID":"2025-016Q","EPOCH":"2026-03-14T21:46:14.338560","MEAN_MOTION":13.5100589,"ECCENTRICITY":0.00179398,"INCLINATION":88.9658,"RA_OF_ASC_NODE":93.4039,"ARG_OF_PERICENTER":80.6415,"MEAN_ANOMALY":279.6764,"EPHEMERIS_TYPE":0,"CLASSIFICATION_TYPE":"U","NORAD_CAT_ID":62799,"ELEMENT_SET_NO":999,"REV_AT_EPOCH":5972,"BSTAR":6.437182e-5,"MEAN_MOTION_DOT":5.4e-7,"MEAN_MOTION_DDOT":0},{"OBJECT_NAME":"QIANFAN-70","OBJECT_ID":"2025-016R","EPOCH":"2026-03-14T22:09:57.514176","MEAN_MOTION":13.50997466,"ECCENTRICITY":0.00174189,"INCLINATION":88.9679,"RA_OF_ASC_NODE":93.5602,"ARG_OF_PERICENTER":72.1545,"MEAN_ANOMALY":288.1505,"EPHEMERIS_TYPE":0,"CLASSIFICATION_TYPE":"U","NORAD_CAT_ID":62800,"ELEMENT_SET_NO":999,"REV_AT_EPOCH":5968,"BSTAR":5.0565151e-5,"MEAN_MOTION_DOT":4.5e-7,"MEAN_MOTION_DDOT":0},{"OBJECT_NAME":"QIANFAN-71","OBJECT_ID":"2025-016S","EPOCH":"2026-03-14T22:03:57.824064","MEAN_MOTION":13.50996985,"ECCENTRICITY":0.00178743,"INCLINATION":88.9673,"RA_OF_ASC_NODE":93.5345,"ARG_OF_PERICENTER":83.7362,"MEAN_ANOMALY":276.5824,"EPHEMERIS_TYPE":0,"CLASSIFICATION_TYPE":"U","NORAD_CAT_ID":62801,"ELEMENT_SET_NO":999,"REV_AT_EPOCH":5968,"BSTAR":5.2389805e-5,"MEAN_MOTION_DOT":4.6e-7,"MEAN_MOTION_DDOT":0},{"OBJECT_NAME":"QIANFAN-72","OBJECT_ID":"2025-016T","EPOCH":"2026-03-14T22:27:41.175072","MEAN_MOTION":13.50996576,"ECCENTRICITY":0.00211774,"INCLINATION":88.9663,"RA_OF_ASC_NODE":93.5371,"ARG_OF_PERICENTER":89.9488,"MEAN_ANOMALY":270.4089,"EPHEMERIS_TYPE":0,"CLASSIFICATION_TYPE":"U","NORAD_CAT_ID":62802,"ELEMENT_SET_NO":999,"REV_AT_EPOCH":5967,"BSTAR":5.1130696e-5,"MEAN_MOTION_DOT":4.5e-7,"MEAN_MOTION_DDOT":0},{"OBJECT_NAME":"QIANFAN-73","OBJECT_ID":"2025-046A","EPOCH":"2026-03-14T21:19:40.919520","MEAN_MOTION":13.51000851,"ECCENTRICITY":0.00135898,"INCLINATION":88.9743,"RA_OF_ASC_NODE":310.5038,"ARG_OF_PERICENTER":212.656,"MEAN_ANOMALY":147.3752,"EPHEMERIS_TYPE":0,"CLASSIFICATION_TYPE":"U","NORAD_CAT_ID":63159,"ELEMENT_SET_NO":999,"REV_AT_EPOCH":5985,"BSTAR":0.00018266615,"MEAN_MOTION_DOT":1.3e-6,"MEAN_MOTION_DDOT":0},{"OBJECT_NAME":"QIANFAN-74","OBJECT_ID":"2025-046B","EPOCH":"2026-03-14T22:42:42.098112","MEAN_MOTION":13.51001226,"ECCENTRICITY":0.00019786,"INCLINATION":88.9744,"RA_OF_ASC_NODE":310.3867,"ARG_OF_PERICENTER":79.4196,"MEAN_ANOMALY":280.7178,"EPHEMERIS_TYPE":0,"CLASSIFICATION_TYPE":"U","NORAD_CAT_ID":63160,"ELEMENT_SET_NO":999,"REV_AT_EPOCH":5992,"BSTAR":0.00022982997,"MEAN_MOTION_DOT":1.6e-6,"MEAN_MOTION_DDOT":0},{"OBJECT_NAME":"QIANFAN-75","OBJECT_ID":"2025-046C","EPOCH":"2026-03-14T20:37:55.539840","MEAN_MOTION":13.50952279,"ECCENTRICITY":0.00146948,"INCLINATION":88.9746,"RA_OF_ASC_NODE":310.6307,"ARG_OF_PERICENTER":216.6328,"MEAN_ANOMALY":143.382,"EPHEMERIS_TYPE":0,"CLASSIFICATION_TYPE":"U","NORAD_CAT_ID":63161,"ELEMENT_SET_NO":999,"REV_AT_EPOCH":5978,"BSTAR":0.00020289907,"MEAN_MOTION_DOT":1.43e-6,"MEAN_MOTION_DDOT":0},{"OBJECT_NAME":"QIANFAN-76","OBJECT_ID":"2025-046D","EPOCH":"2026-03-14T22:18:52.457184","MEAN_MOTION":13.51002429,"ECCENTRICITY":0.00122121,"INCLINATION":88.9745,"RA_OF_ASC_NODE":310.6032,"ARG_OF_PERICENTER":216.1783,"MEAN_ANOMALY":143.8543,"EPHEMERIS_TYPE":0,"CLASSIFICATION_TYPE":"U","NORAD_CAT_ID":63162,"ELEMENT_SET_NO":999,"REV_AT_EPOCH":5980,"BSTAR":0.0002557143,"MEAN_MOTION_DOT":1.77e-6,"MEAN_MOTION_DDOT":0},{"OBJECT_NAME":"QIANFAN-77","OBJECT_ID":"2025-046E","EPOCH":"2026-03-14T22:13:17.738400","MEAN_MOTION":13.96180828,"ECCENTRICITY":0.0015577,"INCLINATION":88.9741,"RA_OF_ASC_NODE":307.8525,"ARG_OF_PERICENTER":145.9475,"MEAN_ANOMALY":214.2704,"EPHEMERIS_TYPE":0,"CLASSIFICATION_TYPE":"U","NORAD_CAT_ID":63163,"ELEMENT_SET_NO":999,"REV_AT_EPOCH":6131,"BSTAR":0.00024065741,"MEAN_MOTION_DOT":3.44e-6,"MEAN_MOTION_DDOT":0},{"OBJECT_NAME":"QIANFAN-78","OBJECT_ID":"2025-046F","EPOCH":"2026-03-14T21:31:31.842912","MEAN_MOTION":13.51001738,"ECCENTRICITY":0.00135063,"INCLINATION":88.9744,"RA_OF_ASC_NODE":310.4698,"ARG_OF_PERICENTER":219.4822,"MEAN_ANOMALY":140.5346,"EPHEMERIS_TYPE":0,"CLASSIFICATION_TYPE":"U","NORAD_CAT_ID":63164,"ELEMENT_SET_NO":999,"REV_AT_EPOCH":5987,"BSTAR":0.00024808534,"MEAN_MOTION_DOT":1.72e-6,"MEAN_MOTION_DDOT":0},{"OBJECT_NAME":"QIANFAN-79","OBJECT_ID":"2025-046G","EPOCH":"2026-03-14T22:13:06.535776","MEAN_MOTION":13.51011631,"ECCENTRICITY":0.00134049,"INCLINATION":88.9748,"RA_OF_ASC_NODE":310.578,"ARG_OF_PERICENTER":217.5258,"MEAN_ANOMALY":142.4959,"EPHEMERIS_TYPE":0,"CLASSIFICATION_TYPE":"U","NORAD_CAT_ID":63165,"ELEMENT_SET_NO":999,"REV_AT_EPOCH":5982,"BSTAR":0.00021423062,"MEAN_MOTION_DOT":1.5e-6,"MEAN_MOTION_DDOT":0},{"OBJECT_NAME":"QIANFAN-80","OBJECT_ID":"2025-046H","EPOCH":"2026-03-14T22:36:40.814784","MEAN_MOTION":13.510009,"ECCENTRICITY":0.00121514,"INCLINATION":88.9745,"RA_OF_ASC_NODE":310.2806,"ARG_OF_PERICENTER":221.7596,"MEAN_ANOMALY":138.2629,"EPHEMERIS_TYPE":0,"CLASSIFICATION_TYPE":"U","NORAD_CAT_ID":63166,"ELEMENT_SET_NO":999,"REV_AT_EPOCH":5998,"BSTAR":0.0002017921,"MEAN_MOTION_DOT":1.42e-6,"MEAN_MOTION_DDOT":0},{"OBJECT_NAME":"QIANFAN-81","OBJECT_ID":"2025-046J","EPOCH":"2026-03-14T22:05:22.153920","MEAN_MOTION":13.50985893,"ECCENTRICITY":0.00134262,"INCLINATION":88.9745,"RA_OF_ASC_NODE":310.3507,"ARG_OF_PERICENTER":210.2129,"MEAN_ANOMALY":149.8249,"EPHEMERIS_TYPE":0,"CLASSIFICATION_TYPE":"U","NORAD_CAT_ID":63167,"ELEMENT_SET_NO":999,"REV_AT_EPOCH":5993,"BSTAR":0.00012435369,"MEAN_MOTION_DOT":9.2e-7,"MEAN_MOTION_DDOT":0},{"OBJECT_NAME":"QIANFAN-82","OBJECT_ID":"2025-046K","EPOCH":"2026-03-14T21:07:51.115008","MEAN_MOTION":13.51002302,"ECCENTRICITY":0.0011356,"INCLINATION":88.9745,"RA_OF_ASC_NODE":310.3988,"ARG_OF_PERICENTER":217.3473,"MEAN_ANOMALY":142.689,"EPHEMERIS_TYPE":0,"CLASSIFICATION_TYPE":"U","NORAD_CAT_ID":63168,"ELEMENT_SET_NO":999,"REV_AT_EPOCH":5991,"BSTAR":0.00018829533,"MEAN_MOTION_DOT":1.34e-6,"MEAN_MOTION_DDOT":0},{"OBJECT_NAME":"QIANFAN-83","OBJECT_ID":"2025-046L","EPOCH":"2026-03-14T21:33:21.496608","MEAN_MOTION":13.6202534,"ECCENTRICITY":0.00131771,"INCLINATION":88.9745,"RA_OF_ASC_NODE":309.9922,"ARG_OF_PERICENTER":195.7981,"MEAN_ANOMALY":164.2767,"EPHEMERIS_TYPE":0,"CLASSIFICATION_TYPE":"U","NORAD_CAT_ID":63169,"ELEMENT_SET_NO":999,"REV_AT_EPOCH":6014,"BSTAR":0.00022122609,"MEAN_MOTION_DOT":1.83e-6,"MEAN_MOTION_DDOT":0},{"OBJECT_NAME":"QIANFAN-84","OBJECT_ID":"2025-046M","EPOCH":"2026-03-14T21:49:33.543264","MEAN_MOTION":13.50833567,"ECCENTRICITY":0.00146618,"INCLINATION":88.9745,"RA_OF_ASC_NODE":310.5285,"ARG_OF_PERICENTER":214.74,"MEAN_ANOMALY":145.2795,"EPHEMERIS_TYPE":0,"CLASSIFICATION_TYPE":"U","NORAD_CAT_ID":63170,"ELEMENT_SET_NO":999,"REV_AT_EPOCH":5984,"BSTAR":0.0002852806,"MEAN_MOTION_DOT":1.96e-6,"MEAN_MOTION_DDOT":0},{"OBJECT_NAME":"QIANFAN-85","OBJECT_ID":"2025-046N","EPOCH":"2026-03-14T21:43:20.900928","MEAN_MOTION":13.51004925,"ECCENTRICITY":0.00117919,"INCLINATION":88.9744,"RA_OF_ASC_NODE":310.4001,"ARG_OF_PERICENTER":216.1279,"MEAN_ANOMALY":143.9077,"EPHEMERIS_TYPE":0,"CLASSIFICATION_TYPE":"U","NORAD_CAT_ID":63171,"ELEMENT_SET_NO":999,"REV_AT_EPOCH":5991,"BSTAR":0.0001990471,"MEAN_MOTION_DOT":1.41e-6,"MEAN_MOTION_DDOT":0}]
